GLOBALSTAR M075 [+]     
1 37192U 10054E   23319.95599314 -.00000107  00000+0 -19717-4 0  9993
2 37192  51.9923 145.1718 0001113  91.1808  73.7777 12.62267565602854
GLOBALSTAR M073 [+]     
1 37193U 10054F   23320.03601477 -.00000104  00000+0 -28079-5 0  9998
2 37193  52.0067  58.2998 0000716 119.2255  51.4134 12.62269214604749
GLOBALSTAR M083 [+]     
1 37739U 11033A   23320.09404618 -.00000085  00000+0  10481-3 0  9999
2 37739  51.9883   7.6474 0000494  76.8123 298.7404 12.62262887574089
GLOBALSTAR M088 [+]     
1 37740U 11033B   23319.92786243 -.00000087  00000+0  91450-4 0  9996
2 37740  51.9739 274.1332 0000882  57.1739  42.3519 12.62267501569533
GLOBALSTAR M091 [+]     
1 37741U 11033C   23319.24283650 -.00000068  00000+0  20019-3 0  9997
2 37741  51.9996 238.7385 0001127  62.4421 101.9140 12.62268486569943
GLOBALSTAR M085 [+]     
1 37742U 11033D   23320.10071953 -.00000075  00000+0  16305-3 0  9997
2 37742  51.9853 187.6783 0001242  74.7889  90.2644 12.62265322571052
GLOBALSTAR M081 [+]     
1 37743U 11033E   23320.12740169 -.00000066  00000+0  21056-3 0  9991
2 37743  51.9943 190.0268 0001335  82.0226  84.3454 12.62266932571094
GLOBALSTAR M089 [+]     
1 37744U 11033F   23320.00925251 -.00000102  00000+0  12571-4 0  9990
2 37744  51.9904 144.7219 0001013 107.6617  61.6322 12.62269695571793
